NORAD_CAT_ID,OBJECT_NAME,OBJECT_TYPE,EPOCH,MEAN_MOTION,ECCENTRICITY,INCLINATION,RA_OF_ASC_NODE,ARG_OF_PERICENTER,MEAN_ANOMALY,BSTAR,MEAN_MOTION_DOT,MEAN_MOTION_DDOT,TLE_LINE0,TLE_LINE1,TLE_LINE2,SEMIMAJOR_AXIS,PERIOD,APOGEE,PERIGEE,DECAYED
53773.0,STARLINK-4718,PAYLOAD,2024-04-22 08:30:58,15.08836813,0.0001638,53.2161,125.1225,85.2452,274.8727,4.461e-06,-2.17e-06,0.0,0 STARLINK-4718,1 53773U 22111A   24113.35484792 -.00000217  00000-0  44610-5 0  9996,2 53773  53.2161 125.1225 0001638  85.2452 274.8727 15.08836813 90231,6917.89,95.438,540.888,538.622,0.0
53773.0,STARLINK-4718,PAYLOAD,2024-04-23 06:46:22,15.08858381,0.0001807,53.2149,120.9581,74.814,285.3052,0.00083402,0.00013017,0.0,0 STARLINK-4718,1 53773U 22111A   24114.28220970  .00013017  00000-0  83402-3 0  9996,2 53773  53.2149 120.9581 0001807  74.8140 285.3052 15.08858381 89275,6917.824,95.436,540.939,538.439,0.0
53773.0,STARLINK-4718,PAYLOAD,2024-04-24 03:26:23,15.08851012,0.0002001,53.2161,117.0906,107.7616,252.3595,9.4404e-05,1.215e-05,0.0,0 STARLINK-4718,1 53773U 22111A   24115.14332192  .00001215  00000-0  94404-4 0  9994,2 53773  53.2161 117.0906 0002001 107.7616 252.3595 15.08851012 89403,6917.847,95.437,541.096,538.327,0.0
53773.0,STARLINK-4718,PAYLOAD,2024-04-24 06:37:09,15.08849503,0.0001592,53.216,116.4935,107.8786,252.238,0.00014261,1.983e-05,0.0,0 STARLINK-4718,1 53773U 22111A   24115.27580284  .00001983  00000-0  14261-3 0  9999,2 53773  53.2160 116.4935 0001592 107.8786 252.2380 15.08849503 90528,6917.851,95.437,540.818,538.615,0.0
53773.0,STARLINK-4718,PAYLOAD,2024-04-25 04:52:33,15.08845071,0.0001652,53.2154,112.3319,114.8845,245.2319,2.0129e-05,3.2e-07,0.0,0 STARLINK-4718,1 53773U 22111A   24116.20316045  .00000032  00000-0  20129-4 0  9990,2 53773  53.2154 112.3319 0001652 114.8845 245.2319 15.08845071 89565,6917.865,95.437,540.873,538.587,0.0
53773.0,STARLINK-4718,PAYLOAD,2024-04-26 06:18:43,15.08843054,0.0001398,53.2159,107.5767,92.9071,267.2081,0.00012243,1.661e-05,0.0,0 STARLINK-4718,1 53773U 22111A   24117.26300046  .00001661  00000-0  12243-3 0  9997,2 53773  53.2159 107.5767 0001398  92.9071 267.2081 15.08843054 89724,6917.871,95.437,540.703,538.769,0.0
53773.0,STARLINK-4718,PAYLOAD,2024-04-26 15:51:01,15.08847995,0.000147,53.2164,105.7931,93.9821,266.1339,0.00015079,2.113e-05,0.0,0 STARLINK-4718,1 53773U 22111A   24117.66043659  .00002113  00000-0  15079-3 0  9998,2 53773  53.2164 105.7931 0001470  93.9821 266.1339 15.08847995 90889,6917.856,95.437,540.738,538.704,0.0
53773.0,STARLINK-4718,PAYLOAD,2024-04-27 07:44:52,15.0886478,0.0001757,53.2155,102.8168,95.1018,265.0175,0.00036194,5.481e-05,0.0,0 STARLINK-4718,1 53773U 22111A   24118.32282704  .00005481  00000-0  36194-3 0  9990,2 53773  53.2155 102.8168 0001757  95.1018 265.0175 15.08864780 89884,6917.805,95.436,540.885,538.454,0.0
53773.0,STARLINK-4718,PAYLOAD,2024-04-27 15:41:48,15.0884241,0.0002267,53.2166,101.3328,84.7402,275.3849,2.5669e-05,1.2e-06,0.0,0 STARLINK-4718,1 53773U 22111A   24118.65403863  .00000120  00000-0  25669-4 0  9998,2 53773  53.2166 101.3328 0002267  84.7402 275.3849 15.08842410 89930,6917.873,95.437,541.306,538.17,0.0
53773.0,STARLINK-4718,PAYLOAD,2024-04-28 04:24:54,15.08823902,0.0001695,53.218,98.9566,97.103,263.0155,-0.00020659,-3.573e-05,0.0,0 STARLINK-4718,1 53773U 22111A   24119.18396865 -.00003573  00000-0 -20659-3 0  9990,2 53773  53.2180  98.9566 0001695  97.1030 263.0155 15.08823902 90010,6917.93,95.439,540.967,538.622,0.0
53773.0,STARLINK-4718,PAYLOAD,2024-04-28 09:11:04,15.08826781,0.0001549,53.2177,98.0623,91.1411,268.9758,-5.1313e-05,-1.104e-05,0.0,0 STARLINK-4718,1 53773U 22111A   24119.38269600 -.00001104  00000-0 -51313-4 0  9998,2 53773  53.2177  98.0623 0001549  91.1411 268.9758 15.08826781 91142,6917.921,95.438,540.857,538.714,0.0
53773.0,STARLINK-4718,PAYLOAD,2024-04-28 15:32:37,15.08834168,0.0001498,53.2178,96.8713,88.7845,271.3319,-1.8366e-05,-5.8e-06,0.0,0 STARLINK-4718,1 53773U 22111A   24119.64765073 -.00000580  00000-0 -18366-4 0  9990,2 53773  53.2178  96.8713 0001498  88.7845 271.3319 15.08834168 90086,6917.898,95.438,540.8,538.727,0.0
53773.0,STARLINK-4718,PAYLOAD,2024-04-29 07:26:28,15.08839795,0.0001419,53.2168,93.8968,89.293,270.8225,0.00014136,1.963e-05,0.0,0 STARLINK-4718,1 53773U 22111A   24120.31004649  .00001963  00000-0  14136-3 0  9995,2 53773  53.2168  93.8968 0001419  89.2930 270.8225 15.08839795 90180,6917.881,95.438,540.728,538.764,0.0
53773.0,STARLINK-4718,PAYLOAD,2024-04-29 15:23:23,15.08847984,0.0001575,53.2181,92.4086,84.983,275.1342,0.00030083,4.504e-05,0.0,0 STARLINK-4718,1 53773U 22111A   24120.64124438  .00004504  00000-0  30083-3 0  9993,2 53773  53.2181  92.4086 0001575  84.9830 275.1342 15.08847984 91330,6917.856,95.437,540.811,538.631,0.0
53773.0,STARLINK-4718,PAYLOAD,2024-04-30 05:41:51,15.08849953,0.0001404,53.2166,89.7338,88.2087,271.9066,0.00040561,6.175e-05,0.0,0 STARLINK-4718,1 53773U 22111A   24121.23740589  .00006175  00000-0  40561-3 0  9998,2 53773  53.2166  89.7338 0001404  88.2087 271.9066 15.08849953 91429,6917.85,95.437,540.686,538.744,0.0
53773.0,STARLINK-4718,PAYLOAD,2024-04-30 15:14:10,15.08854109,0.000144,53.2166,87.9494,88.9809,271.1349,0.0003724,5.646e-05,0.0,0 STARLINK-4718,1 53773U 22111A   24121.63484242  .00005646  00000-0  37240-3 0  9995,2 53773  53.2166  87.9494 0001440  88.9809 271.1349 15.08854109 90380,6917.837,95.437,540.698,538.706,0.0
53773.0,STARLINK-4718,PAYLOAD,2024-05-01 03:57:15,15.08849381,0.0001764,53.2186,85.5692,98.6494,261.4698,0.00021165,3.083e-05,0.0,0 STARLINK-4718,1 53773U 22111A   24122.16476381  .00003083  00000-0  21165-3 0  9991,2 53773  53.2186  85.5692 0001764  98.6494 261.4698 15.08849381 90467,6917.852,95.437,540.937,538.496,0.0
53773.0,STARLINK-4718,PAYLOAD,2024-05-01 21:26:30,15.08844288,0.0001636,53.2172,82.2991,98.9992,261.1185,0.00014225,1.977e-05,0.0,0 STARLINK-4718,1 53773U 22111A   24122.89340433  .00001977  00000-0  14225-3 0  9998,2 53773  53.2172  82.2991 0001636  98.9992 261.1185 15.08844288 90573,6917.867,95.437,540.864,538.601,0.0
53773.0,STARLINK-4718,PAYLOAD,2024-05-02 03:48:02,15.08837111,0.0001359,53.2177,81.1121,87.0807,273.0341,0.00010981,1.46e-05,0.0,0 STARLINK-4718,1 53773U 22111A   24123.15836772  .00001460  00000-0  10981-3 0  9996,2 53773  53.2177  81.1121 0001359  87.0807 273.0341 15.08837111 90615,6917.889,95.438,540.694,538.814,0.0
53773.0,STARLINK-4718,PAYLOAD,2024-05-03 03:38:49,15.08846312,0.0001388,53.2166,76.6484,92.1647,267.9504,0.00019767,2.86e-05,0.0,0 STARLINK-4718,1 53773U 22111A   24124.15196237  .00002860  00000-0  19767-3 0  9998,2 53773  53.2166  76.6484 0001388  92.1647 267.9504 15.08846312 90767,6917.861,95.437,540.686,538.766,0.0
53773.0,STARLINK-4718,PAYLOAD,2024-05-03 21:08:04,15.08834488,0.0001176,53.2169,73.3806,85.8863,274.2263,9.4768e-05,1.221e-05,0.0,0 STARLINK-4718,1 53773U 22111A   24124.88060840  .00001221  00000-0  94768-4 0  9993,2 53773  53.2169  73.3806 0001176  85.8863 274.2263 15.08834488 90872,6917.897,95.438,540.576,538.949,0.0
53773.0,STARLINK-4718,PAYLOAD,2024-05-04 03:29:38,15.08821539,0.0001344,53.2183,72.1906,82.5436,277.5709,-1.3627e-05,-5.05e-06,0.0,0 STARLINK-4718,1 53773U 22111A   24125.14558189 -.00000505  00000-0 -13627-4 0  9992,2 53773  53.2183  72.1906 0001344  82.5436 277.5709 15.08821539 90912,6917.937,95.439,540.732,538.872,0.0
53773.0,STARLINK-4718,PAYLOAD,2024-05-04 13:01:56,15.08829712,0.0001341,53.2176,70.4063,80.6275,279.4869,-4.4262e-05,-9.92e-06,0.0,0 STARLINK-4718,1 53773U 22111A   24125.54301509 -.00000992  00000-0 -44262-4 0  9997,2 53773  53.2176  70.4063 0001341  80.6275 279.4869 15.08829712 90971,6917.912,95.438,540.705,538.849,0.0
53773.0,STARLINK-4718,PAYLOAD,2024-05-05 04:55:47,15.0884665,0.0001208,53.2171,67.4317,77.8679,282.2449,0.0001818,2.607e-05,0.0,0 STARLINK-4718,1 53773U 22111A   24126.20541080  .00002607  00000-0  18180-3 0  9993,2 53773  53.2171  67.4317 0001208  77.8679 282.2449 15.08846650 91070,6917.86,95.437,540.561,538.889,0.0
53773.0,STARLINK-4718,PAYLOAD,2024-05-06 12:43:29,15.0886799,0.0001305,53.2172,61.4848,72.8007,287.3128,0.00072133,0.00011219,0.0,0 STARLINK-4718,1 53773U 22111A   24127.53020488  .00011219  00000-0  72133-3 0  9991,2 53773  53.2172  61.4848 0001305  72.8007 287.3128 15.08867990 91274,6917.795,95.436,540.563,538.757,0.0
53773.0,STARLINK-4718,PAYLOAD,2024-05-07 03:01:58,15.08850492,0.0001522,53.2181,58.8102,82.3392,277.7773,0.00019689,2.848e-05,0.0,0 STARLINK-4718,1 53773U 22111A   24128.12636633  .00002848  00000-0  19689-3 0  9997,2 53773  53.2181  58.8102 0001522  82.3392 277.7773 15.08850492 91369,6917.848,95.437,540.766,538.66,0.0
53773.0,STARLINK-4718,PAYLOAD,2024-05-07 12:34:16,15.08856111,0.0001572,53.2188,57.0264,82.4266,277.6904,0.00034682,5.238e-05,0.0,0 STARLINK-4718,1 53773U 22111A   24128.52380276  .00005238  00000-0  34682-3 0  9996,2 53773  53.2188  57.0264 0001572  82.4266 277.6904 15.08856111 92520,6917.831,95.437,540.784,538.609,0.0
53773.0,STARLINK-4718,PAYLOAD,2024-05-08 01:17:22,15.08829811,0.0001268,53.2168,54.6464,90.8697,269.244,-0.00011583,-2.13e-05,0.0,0 STARLINK-4718,1 53773U 22111A   24129.05372974 -.00002130  00000-0 -11583-3 0  9996,2 53773  53.2168  54.6464 0001268  90.8697 269.2440 15.08829811 91502,6917.912,95.438,540.654,538.899,0.0
53773.0,STARLINK-4718,PAYLOAD,2024-05-08 12:25:04,15.08838795,0.00014,53.2179,52.5622,100.4386,259.6764,0.00050637,7.78e-05,0.0,0 STARLINK-4718,1 53773U 22111A   24129.51741266  .00007780  00000-0  50637-3 0  9998,2 53773  53.2179  52.5622 0001400 100.4386 259.6764 15.08838795 92670,6917.884,95.438,540.718,538.781,0.0
53773.0,STARLINK-4718,PAYLOAD,2024-05-09 04:18:57,15.08815977,0.0001494,53.2186,49.5897,103.4807,256.6352,0.00061716,9.541e-05,0.0,0 STARLINK-4718,1 53773U 22111A   24130.17982869  .00009541  00000-0  61716-3 0  9995,2 53773  53.2186  49.5897 0001494 103.4807 256.6352 15.08815977 91678,6917.954,95.439,540.852,538.785,0.0
